[{"OBJECT_NAME":"COSMOS 2251 DEB","OBJECT_ID":"1993-036HY","EPOCH":"2026-03-03T23:09:39.282336","MEAN_MOTION":14.34954617,"ECCENTRICITY":0.0053906,"INCLINATION":74.0484,"RA_OF_ASC_NODE":261.7435,"ARG_OF_PERICENTER":291.5818,"MEAN_ANOMALY":67.9595,"EPHEMERIS_TYPE":0,"CLASSIFICATION_TYPE":"U","NORAD_CAT_ID":34037,"ELEMENT_SET_NO":999,"REV_AT_EPOCH":88882,"BSTAR":0.00053844,"MEAN_MOTION_DOT":1.531e-5,"MEAN_MOTION_DDOT":0},{"OBJECT_NAME":"COSMOS 2251 DEB","OBJECT_ID":"1993-036JB","EPOCH":"2026-03-04T00:59:55.097952","MEAN_MOTION":13.68779133,"ECCENTRICITY":0.0339276,"INCLINATION":73.9559,"RA_OF_ASC_NODE":291.4703,"ARG_OF_PERICENTER":229.0468,"MEAN_ANOMALY":128.0833,"EPHEMERIS_TYPE":0,"CLASSIFICATION_TYPE":"U","NORAD_CAT_ID":34040,"ELEMENT_SET_NO":999,"REV_AT_EPOCH":84712,"BSTAR":0.0010617,"MEAN_MOTION_DOT":1.343e-5,"MEAN_MOTION_DDOT":0},{"OBJECT_NAME":"COSMOS 2251 DEB","OBJECT_ID":"1993-036JG","EPOCH":"2026-03-03T17:47:14.358624","MEAN_MOTION":14.3411957,"ECCENTRICITY":0.00273577,"INCLINATION":74.0397,"RA_OF_ASC_NODE":162.6174,"ARG_OF_PERICENTER":230.523,"MEAN_ANOMALY":248.651,"EPHEMERIS_TYPE":0,"CLASSIFICATION_TYPE":"U","NORAD_CAT_ID":34045,"ELEMENT_SET_NO":999,"REV_AT_EPOCH":89194,"BSTAR":0.00011106851,"MEAN_MOTION_DOT":2.86e-6,"MEAN_MOTION_DDOT":0},{"OBJECT_NAME":"COSMOS 2251 DEB","OBJECT_ID":"1993-036JH","EPOCH":"2026-03-03T20:41:58.907040","MEAN_MOTION":14.47270041,"ECCENTRICITY":0.0077063,"INCLINATION":74.0374,"RA_OF_ASC_NODE":218.8952,"ARG_OF_PERICENTER":283.072,"MEAN_ANOMALY":228.1029,"EPHEMERIS_TYPE":0,"CLASSIFICATION_TYPE":"U","NORAD_CAT_ID":34046,"ELEMENT_SET_NO":999,"REV_AT_EPOCH":88999,"BSTAR":0.0016688,"MEAN_MOTION_DOT":6.312e-5,"MEAN_MOTION_DDOT":0},{"OBJECT_NAME":"COSMOS 2251 DEB","OBJECT_ID":"1993-036JM","EPOCH":"2026-03-03T20:53:12.281856","MEAN_MOTION":13.96444652,"ECCENTRICITY":0.0216471,"INCLINATION":74.0858,"RA_OF_ASC_NODE":230.8426,"ARG_OF_PERICENTER":275.8946,"MEAN_ANOMALY":153.4314,"EPHEMERIS_TYPE":0,"CLASSIFICATION_TYPE":"U","NORAD_CAT_ID":34050,"ELEMENT_SET_NO":999,"REV_AT_EPOCH":86564,"BSTAR":0.00060024,"MEAN_MOTION_DOT":9.84e-6,"MEAN_MOTION_DDOT":0},{"OBJECT_NAME":"COSMOS 2251 DEB","OBJECT_ID":"1993-036JQ","EPOCH":"2026-03-03T19:11:59.708832","MEAN_MOTION":13.49274989,"ECCENTRICITY":0.04252265,"INCLINATION":73.8427,"RA_OF_ASC_NODE":111.5238,"ARG_OF_PERICENTER":246.7826,"MEAN_ANOMALY":108.7971,"EPHEMERIS_TYPE":0,"CLASSIFICATION_TYPE":"U","NORAD_CAT_ID":34053,"ELEMENT_SET_NO":999,"REV_AT_EPOCH":83777,"BSTAR":0.00073412373,"MEAN_MOTION_DOT":7.83e-6,"MEAN_MOTION_DDOT":0},{"OBJECT_NAME":"COSMOS 2251 DEB","OBJECT_ID":"1993-036JT","EPOCH":"2026-03-04T01:43:23.316096","MEAN_MOTION":14.2123609,"ECCENTRICITY":0.0124832,"INCLINATION":74.0587,"RA_OF_ASC_NODE":290.8733,"ARG_OF_PERICENTER":319.6844,"MEAN_ANOMALY":161.1494,"EPHEMERIS_TYPE":0,"CLASSIFICATION_TYPE":"U","NORAD_CAT_ID":34056,"ELEMENT_SET_NO":999,"REV_AT_EPOCH":87566,"BSTAR":0.0016538,"MEAN_MOTION_DOT":3.873e-5,"MEAN_MOTION_DDOT":0},{"OBJECT_NAME":"COSMOS 2251 DEB","OBJECT_ID":"1993-036JV","EPOCH":"2026-03-03T10:02:56.359968","MEAN_MOTION":13.56183108,"ECCENTRICITY":0.03766075,"INCLINATION":73.9328,"RA_OF_ASC_NODE":47.3306,"ARG_OF_PERICENTER":26.9217,"MEAN_ANOMALY":88.6861,"EPHEMERIS_TYPE":0,"CLASSIFICATION_TYPE":"U","NORAD_CAT_ID":34058,"ELEMENT_SET_NO":999,"REV_AT_EPOCH":84236,"BSTAR":0.00067485163,"MEAN_MOTION_DOT":7.27e-6,"MEAN_MOTION_DDOT":0},{"OBJECT_NAME":"COSMOS 2251 DEB","OBJECT_ID":"1993-036JW","EPOCH":"2026-03-04T00:54:19.685376","MEAN_MOTION":14.53537897,"ECCENTRICITY":0.001522,"INCLINATION":74.0393,"RA_OF_ASC_NODE":32.8297,"ARG_OF_PERICENTER":92.8645,"MEAN_ANOMALY":343.2037,"EPHEMERIS_TYPE":0,"CLASSIFICATION_TYPE":"U","NORAD_CAT_ID":34059,"ELEMENT_SET_NO":999,"REV_AT_EPOCH":89640,"BSTAR":0.0010386,"MEAN_MOTION_DOT":4.316e-5,"MEAN_MOTION_DDOT":0},{"OBJECT_NAME":"COSMOS 2251 DEB","OBJECT_ID":"1993-036JY","EPOCH":"2026-03-04T03:05:18.270816","MEAN_MOTION":14.40556811,"ECCENTRICITY":0.0020052,"INCLINATION":74.0377,"RA_OF_ASC_NODE":112.9273,"ARG_OF_PERICENTER":179.3185,"MEAN_ANOMALY":211.5773,"EPHEMERIS_TYPE":0,"CLASSIFICATION_TYPE":"U","NORAD_CAT_ID":34061,"ELEMENT_SET_NO":999,"REV_AT_EPOCH":89352,"BSTAR":0.00033814,"MEAN_MOTION_DOT":1.053e-5,"MEAN_MOTION_DDOT":0},{"OBJECT_NAME":"COSMOS 2251 DEB","OBJECT_ID":"1993-036JZ","EPOCH":"2026-03-04T04:09:26.002368","MEAN_MOTION":14.8181878,"ECCENTRICITY":0.0068375,"INCLINATION":74.0301,"RA_OF_ASC_NODE":337.472,"ARG_OF_PERICENTER":35.1447,"MEAN_ANOMALY":126.0117,"EPHEMERIS_TYPE":0,"CLASSIFICATION_TYPE":"U","NORAD_CAT_ID":34062,"ELEMENT_SET_NO":999,"REV_AT_EPOCH":89800,"BSTAR":0.0034955,"MEAN_MOTION_DOT":0.00028845,"MEAN_MOTION_DDOT":0},{"OBJECT_NAME":"COSMOS 2251 DEB","OBJECT_ID":"1993-036KB","EPOCH":"2026-03-04T03:46:12.523296","MEAN_MOTION":14.42665934,"ECCENTRICITY":0.0021207,"INCLINATION":74.0308,"RA_OF_ASC_NODE":119.789,"ARG_OF_PERICENTER":176.0972,"MEAN_ANOMALY":215.1892,"EPHEMERIS_TYPE":0,"CLASSIFICATION_TYPE":"U","NORAD_CAT_ID":34064,"ELEMENT_SET_NO":999,"REV_AT_EPOCH":89316,"BSTAR":0.00051038,"MEAN_MOTION_DOT":1.676e-5,"MEAN_MOTION_DDOT":0},{"OBJECT_NAME":"COSMOS 2251 DEB","OBJECT_ID":"1993-036KC","EPOCH":"2026-03-04T03:09:35.392032","MEAN_MOTION":14.38159369,"ECCENTRICITY":0.0016763,"INCLINATION":74.034,"RA_OF_ASC_NODE":108.1927,"ARG_OF_PERICENTER":195.7696,"MEAN_ANOMALY":230.7238,"EPHEMERIS_TYPE":0,"CLASSIFICATION_TYPE":"U","NORAD_CAT_ID":34065,"ELEMENT_SET_NO":999,"REV_AT_EPOCH":89375,"BSTAR":0.00018172,"MEAN_MOTION_DOT":5.26e-6,"MEAN_MOTION_DDOT":0},{"OBJECT_NAME":"COSMOS 2251 DEB","OBJECT_ID":"1993-036KH","EPOCH":"2026-03-04T04:19:26.438304","MEAN_MOTION":14.80018,"ECCENTRICITY":0.0016316,"INCLINATION":74.0017,"RA_OF_ASC_NODE":315.8744,"ARG_OF_PERICENTER":53.5763,"MEAN_ANOMALY":103.4326,"EPHEMERIS_TYPE":0,"CLASSIFICATION_TYPE":"U","NORAD_CAT_ID":34070,"ELEMENT_SET_NO":999,"REV_AT_EPOCH":89814,"BSTAR":0.0030246,"MEAN_MOTION_DOT":0.0002299,"MEAN_MOTION_DDOT":0},{"OBJECT_NAME":"COSMOS 2251 DEB","OBJECT_ID":"1993-036KK","EPOCH":"2026-03-03T22:51:16.972128","MEAN_MOTION":14.58199831,"ECCENTRICITY":0.0045357,"INCLINATION":74.0556,"RA_OF_ASC_NODE":249.7288,"ARG_OF_PERICENTER":226.7977,"MEAN_ANOMALY":285.7473,"EPHEMERIS_TYPE":0,"CLASSIFICATION_TYPE":"U","NORAD_CAT_ID":34114,"ELEMENT_SET_NO":999,"REV_AT_EPOCH":88984,"BSTAR":0.0031005,"MEAN_MOTION_DOT":0.00014513,"MEAN_MOTION_DDOT":0},{"OBJECT_NAME":"COSMOS 2251 DEB","OBJECT_ID":"1993-036KL","EPOCH":"2026-03-04T01:30:34.900416","MEAN_MOTION":14.81034828,"ECCENTRICITY":0.0032691,"INCLINATION":74.0038,"RA_OF_ASC_NODE":81.4023,"ARG_OF_PERICENTER":247.4897,"MEAN_ANOMALY":112.2818,"EPHEMERIS_TYPE":0,"CLASSIFICATION_TYPE":"U","NORAD_CAT_ID":34115,"ELEMENT_SET_NO":999,"REV_AT_EPOCH":90615,"BSTAR":0.0014667,"MEAN_MOTION_DOT":0.00011462,"MEAN_MOTION_DDOT":0}]
