COSMOS 2251 DEB         
1 34037U 93036HY  26062.96503799  .00001531  00000+0  53844-3 0  9998
2 34037  74.0484 261.7435 0053906 291.5818  67.9595 14.34954617888820
COSMOS 2251 DEB         
1 34040U 93036JB  26063.04160993  .00001343  00000+0  10617-2 0  9998
2 34040  73.9559 291.4703 0339276 229.0468 128.0833 13.68779133847123
COSMOS 2251 DEB         
1 34045U 93036JG  26062.74113841  .00000286  00000+0  11107-3 0  9990
2 34045  74.0397 162.6174 0027357 230.5230 248.6510 14.34119570891946
COSMOS 2251 DEB         
1 34046U 93036JH  26062.86248735  .00006312  00000+0  16688-2 0  9999
2 34046  74.0374 218.8952 0077063 283.0720 228.1029 14.47270041889991
COSMOS 2251 DEB         
1 34050U 93036JM  26062.87028104  .00000984  00000+0  60024-3 0  9994
2 34050  74.0858 230.8426 0216471 275.8946 153.4314 13.96444652865647
COSMOS 2251 DEB         
1 34053U 93036JQ  26062.79999663  .00000783  00000+0  73412-3 0  9997
2 34053  73.8427 111.5238 0425226 246.7826 108.7971 13.49274989837776
COSMOS 2251 DEB         
1 34056U 93036JT  26063.07179764  .00003873  00000+0  16538-2 0  9992
2 34056  74.0587 290.8733 0124832 319.6844 161.1494 14.21236090875664
COSMOS 2251 DEB         
1 34058U 93036JV  26062.41870787  .00000727  00000+0  67485-3 0  9997
2 34058  73.9328  47.3306 0376607  26.9217  88.6861 13.56183108842369
COSMOS 2251 DEB         
1 34059U 93036JW  26063.03772784  .00004316  00000+0  10386-2 0  9990
2 34059  74.0393  32.8297 0015220  92.8645 343.2037 14.53537897896405
COSMOS 2251 DEB         
1 34061U 93036JY  26063.12868369  .00001053  00000+0  33814-3 0  9995
2 34061  74.0377 112.9273 0020052 179.3185 211.5773 14.40556811893520
COSMOS 2251 DEB         
1 34062U 93036JZ  26063.17321762  .00028845  00000+0  34955-2 0  9996
2 34062  74.0301 337.4720 0068375  35.1447 126.0117 14.81818780898000
COSMOS 2251 DEB         
1 34064U 93036KB  26063.15708939  .00001676  00000+0  51038-3 0  9996
2 34064  74.0308 119.7890 0021207 176.0972 215.1892 14.42665934893169
COSMOS 2251 DEB         
1 34065U 93036KC  26063.13165963  .00000526  00000+0  18172-3 0  9994
2 34065  74.0340 108.1927 0016763 195.7696 230.7238 14.38159369893758
COSMOS 2251 DEB         
1 34070U 93036KH  26063.18016711  .00022990  00000+0  30246-2 0  9995
2 34070  74.0017 315.8744 0016316  53.5763 103.4326 14.80018000898144
COSMOS 2251 DEB         
1 34114U 93036KK  26062.95227977  .00014513  00000+0  31005-2 0  9992
2 34114  74.0556 249.7288 0045357 226.7977 285.7473 14.58199831889848
COSMOS 2251 DEB         
1 34115U 93036KL  26063.06290394  .00011462  00000+0  14667-2 0  9994
2 34115  74.0038  81.4023 0032691 247.4897 112.2818 14.81034828906151
